{"type": "FeatureCollection", "features": [ {"type": "Feature", "properties": {"norad_id": 38067, "name": "COSMOS 2251 DEB", "group": "cosmos-2251-debris", "lat": 1.6221494215948637, "lon": -67.49339226822278, "alt_km": 683.918455082563, "timestamp": "2025-12-03T13:52:09.965006+00:00", "meta": {"OBJECT_NAME": "COSMOS 2251 DEB", "OBJECT_ID": "1993-036BRZ", "EPOCH": "2025-11-29T04:46:36.876288", "MEAN_MOTION": 14.61044936, "ECCENTRICITY": 0.00691529, "INCLINATION": 74.017, "RA_OF_ASC_NODE": 300.4181, "ARG_OF_PERICENTER": 91.9303, "MEAN_ANOMALY": 288.2542, "EPHEMERIS_TYPE": 0, "CLASSIFICATION_TYPE": "U", "NORAD_CAT_ID": 38067, "ELEMENT_SET_NO": 999, "REV_AT_EPOCH": 62358, "BSTAR": 0.00037425936, "MEAN_MOTION_DOT": 1.87e-05, "MEAN_MOTION_DDOT": 0}, "tle": {"line1": "1 38067U 93036BRZ 25333.19903792  .00001870  00000+0  37426-3 0  9991", "line2": "2 38067  74.0170 300.4181 0069152  91.9303 288.2542 14.61044936623583"}}, "geometry": {"type": "Point", "coordinates": [-67.49339226822278, 1.6221494215948637]}}, {"type": "Feature", "properties": {"norad_id": 38068, "name": "COSMOS 2251 DEB", "group": "cosmos-2251-debris", "lat": -51.13363896059216, "lon": 165.902244406397, "alt_km": 795.6198939435781, "timestamp": "2025-12-03T13:52:09.965016+00:00", "meta": {"OBJECT_NAME": "COSMOS 2251 DEB", "OBJECT_ID": "1993-036BSA", "EPOCH": "2025-11-26T00:12:22.263264", "MEAN_MOTION": 14.35960004, "ECCENTRICITY": 0.00240903, "INCLINATION": 74.0219, "RA_OF_ASC_NODE": 338.9788, "ARG_OF_PERICENTER": 72.1007, "MEAN_ANOMALY": 288.2769, "EPHEMERIS_TYPE": 0, "CLASSIFICATION_TYPE": "U", "NORAD_CAT_ID": 38068, "ELEMENT_SET_NO": 999, "REV_AT_EPOCH": 66406, "BSTAR": 0.00028750999, "MEAN_MOTION_DOT": 8.11e-06, "MEAN_MOTION_DDOT": 0}, "tle": {"line1": "1 38068U 93036BSA 25330.00859101  .00000811  00000+0  28751-3 0  9998", "line2": "2 38068  74.0219 338.9788 0024090  72.1007 288.2769 14.35960004664064"}}, "geometry": {"type": "Point", "coordinates": [165.902244406397, -51.13363896059216]}}, {"type": "Feature", "properties": {"norad_id": 38197, "name": "COSMOS 2251 DEB", "group": "cosmos-2251-debris", "lat": 59.22230676212463, "lon": 43.95840100825978, "alt_km": 734.1754979681273, "timestamp": "2025-12-03T13:52:09.965027+00:00", "meta": {"OBJECT_NAME": "COSMOS 2251 DEB", "OBJECT_ID": "1993-036BSM", "EPOCH": "2025-11-30T20:22:30.930240", "MEAN_MOTION": 14.72855932, "ECCENTRICITY": 0.01292085, "INCLINATION": 73.9391, "RA_OF_ASC_NODE": 20.3775, "ARG_OF_PERICENTER": 260.5427, "MEAN_ANOMALY": 98.1121, "EPHEMERIS_TYPE": 0, "CLASSIFICATION_TYPE": "U", "NORAD_CAT_ID": 38197, "ELEMENT_SET_NO": 999, "REV_AT_EPOCH": 85580, "BSTAR": 0.0048480402, "MEAN_MOTION_DOT": 0.00035581, "MEAN_MOTION_DDOT": 0}, "tle": {"line1": "1 38197U 93036BSM 25334.84896910  .00035581  00000+0  48480-2 0  9998", "line2": "2 38197  73.9391  20.3775 0129208 260.5427  98.1121 14.72855932855808"}}, "geometry": {"type": "Point", "coordinates": [43.95840100825978, 59.22230676212463]}}, {"type": "Feature", "properties": {"norad_id": 38199, "name": "COSMOS 2251 DEB", "group": "cosmos-2251-debris", "lat": -17.266145188269377, "lon": -97.62786077809434, "alt_km": 1289.3008637763314, "timestamp": "2025-12-03T13:52:09.965037+00:00", "meta": {"OBJECT_NAME": "COSMOS 2251 DEB", "OBJECT_ID": "1993-036BSP", "EPOCH": "2025-12-02T22:49:38.265312", "MEAN_MOTION": 13.64776302, "ECCENTRICITY": 0.0369281, "INCLINATION": 73.9555, "RA_OF_ASC_NODE": 78.27, "ARG_OF_PERICENTER": 6.7365, "MEAN_ANOMALY": 353.8516, "EPHEMERIS_TYPE": 0, "CLASSIFICATION_TYPE": "U", "NORAD_CAT_ID": 38199, "ELEMENT_SET_NO": 999, "REV_AT_EPOCH": 60888, "BSTAR": 0.00050371232, "MEAN_MOTION_DOT": 6.24e-06, "MEAN_MOTION_DDOT": 0}, "tle": {"line1": "1 38199U 93036BSP 25336.95113733  .00000624  00000+0  50371-3 0  9992", "line2": "2 38199  73.9555  78.2700 0369281   6.7365 353.8516 13.64776302608886"}}, "geometry": {"type": "Point", "coordinates": [-97.62786077809434, -17.266145188269377]}}, {"type": "Feature", "properties": {"norad_id": 38208, "name": "COSMOS 2251 DEB", "group": "cosmos-2251-debris", "lat": 41.2865053282012, "lon": 111.68050540596529, "alt_km": 617.5117620886704, "timestamp": "2025-12-03T13:52:09.965048+00:00", "meta": {"OBJECT_NAME": "COSMOS 2251 DEB", "OBJECT_ID": "1993-036BSY", "EPOCH": "2025-12-02T15:06:31.372992", "MEAN_MOTION": 14.83188605, "ECCENTRICITY": 0.00039653, "INCLINATION": 74.0061, "RA_OF_ASC_NODE": 98.9729, "ARG_OF_PERICENTER": 183.0621, "MEAN_ANOMALY": 198.654, "EPHEMERIS_TYPE": 0, "CLASSIFICATION_TYPE": "U", "NORAD_CAT_ID": 38208, "ELEMENT_SET_NO": 999, "REV_AT_EPOCH": 71009, "BSTAR": 0.003692922, "MEAN_MOTION_DOT": 0.0003026, "MEAN_MOTION_DDOT": 0}, "tle": {"line1": "1 38208U 93036BSY 25336.62952978  .00030260  00000+0  36929-2 0  9990", "line2": "2 38208  74.0061  98.9729 0003965 183.0621 198.6540 14.83188605710093"}}, "geometry": {"type": "Point", "coordinates": [111.68050540596529, 41.2865053282012]}}, {"type": "Feature", "properties": {"norad_id": 38212, "name": "COSMOS 2251 DEB", "group": "cosmos-2251-debris", "lat": -10.60307510581872, "lon": -82.36444059562344, "alt_km": 582.1080935426144, "timestamp": "2025-12-03T13:52:09.965071+00:00", "meta": {"OBJECT_NAME": "COSMOS 2251 DEB", "OBJECT_ID": "1993-036BTC", "EPOCH": "2025-11-30T02:08:11.826528", "MEAN_MOTION": 14.77531577, "ECCENTRICITY": 0.00935039, "INCLINATION": 74.0506, "RA_OF_ASC_NODE": 101.4043, "ARG_OF_PERICENTER": 172.1987, "MEAN_ANOMALY": 188.0671, "EPHEMERIS_TYPE": 0, "CLASSIFICATION_TYPE": "U", "NORAD_CAT_ID": 38212, "ELEMENT_SET_NO": 999, "REV_AT_EPOCH": 81123, "BSTAR": 0.000758158, "MEAN_MOTION_DOT": 5.788e-05, "MEAN_MOTION_DDOT": 0}, "tle": {"line1": "1 38212U 93036BTC 25334.08902577  .00005788  00000+0  75816-3 0  9999", "line2": "2 38212  74.0506 101.4043 0093503 172.1987 188.0671 14.77531577811231"}}, "geometry": {"type": "Point", "coordinates": [-82.36444059562344, -10.60307510581872]}}, {"type": "Feature", "properties": {"norad_id": 38220, "name": "COSMOS 2251 DEB", "group": "cosmos-2251-debris", "lat": -29.147299558107253, "lon": -84.07934507332075, "alt_km": 598.4528198235175, "timestamp": "2025-12-03T13:52:09.965083+00:00", "meta": {"OBJECT_NAME": "COSMOS 2251 DEB", "OBJECT_ID": "1993-036BTL", "EPOCH": "2025-12-02T14:23:55.852800", "MEAN_MOTION": 14.91852197, "ECCENTRICITY": 0.0003685, "INCLINATION": 74.0146, "RA_OF_ASC_NODE": 88.6858, "ARG_OF_PERICENTER": 99.6245, "MEAN_ANOMALY": 260.5354, "EPHEMERIS_TYPE": 0, "CLASSIFICATION_TYPE": "U", "NORAD_CAT_ID": 38220, "ELEMENT_SET_NO": 999, "REV_AT_EPOCH": 71219, "BSTAR": 0.0045511067, "MEAN_MOTION_DOT": 0.00046254, "MEAN_MOTION_DDOT": 0}, "tle": {"line1": "1 38220U 93036BTL 25336.59995200  .00046254  00000+0  45511-2 0  9992", "line2": "2 38220  74.0146  88.6858 0003685  99.6245 260.5354 14.91852197712191"}}, "geometry": {"type": "Point", "coordinates": [-84.07934507332075, -29.147299558107253]}}, {"type": "Feature", "properties": {"norad_id": 38479, "name": "COSMOS 2251 DEB", "group": "cosmos-2251-debris", "lat": -30.2187730449295, "lon": -168.41111367351775, "alt_km": 712.5780278239463, "timestamp": "2025-12-03T13:52:09.965094+00:00", "meta": {"OBJECT_NAME": "COSMOS 2251 DEB", "OBJECT_ID": "1993-036BTP", "EPOCH": "2025-11-15T12:46:06.719808", "MEAN_MOTION": 14.37875238, "ECCENTRICITY": 0.00846922, "INCLINATION": 74.0077, "RA_OF_ASC_NODE": 234.4912, "ARG_OF_PERICENTER": 348.2771, "MEAN_ANOMALY": 195.3627, "EPHEMERIS_TYPE": 0, "CLASSIFICATION_TYPE": "U", "NORAD_CAT_ID": 38479, "ELEMENT_SET_NO": 999, "REV_AT_EPOCH": 64296, "BSTAR": 0.00281077, "MEAN_MOTION_DOT": 8.824e-05, "MEAN_MOTION_DDOT": 0}, "tle": {"line1": "1 38479U 93036BTP 25319.53202222  .00008824  00000+0  28108-2 0  9992", "line2": "2 38479  74.0077 234.4912 0084692 348.2771 195.3627 14.37875238642962"}}, "geometry": {"type": "Point", "coordinates": [-168.41111367351775, -30.2187730449295]}}, {"type": "Feature", "properties": {"norad_id": 38481, "name": "COSMOS 2251 DEB", "group": "cosmos-2251-debris", "lat": -37.77386281245452, "lon": -143.7025813574894, "alt_km": 960.955290751318, "timestamp": "2025-12-03T13:52:09.965104+00:00", "meta": {"OBJECT_NAME": "COSMOS 2251 DEB", "OBJECT_ID": "1993-036BTR", "EPOCH": "2025-11-30T21:06:34.190496", "MEAN_MOTION": 13.94733975, "ECCENTRICITY": 0.02337783, "INCLINATION": 73.9329, "RA_OF_ASC_NODE": 28.0528, "ARG_OF_PERICENTER": 330.587, "MEAN_ANOMALY": 28.2266, "EPHEMERIS_TYPE": 0, "CLASSIFICATION_TYPE": "U", "NORAD_CAT_ID": 38481, "ELEMENT_SET_NO": 999, "REV_AT_EPOCH": 58895, "BSTAR": 0.0013592661, "MEAN_MOTION_DOT": 2.261e-05, "MEAN_MOTION_DDOT": 0}, "tle": {"line1": "1 38481U 93036BTR 25334.87956239  .00002261  00000+0  13593-2 0  9994", "line2": "2 38481  73.9329  28.0528 0233778 330.5870  28.2266 13.94733975588952"}}, "geometry": {"type": "Point", "coordinates": [-143.7025813574894, -37.77386281245452]}}, {"type": "Feature", "properties": {"norad_id": 38483, "name": "COSMOS 2251 DEB", "group": "cosmos-2251-debris", "lat": -67.62017382853112, "lon": -15.072689635215276, "alt_km": 871.5672955020036, "timestamp": "2025-12-03T13:52:09.965116+00:00", "meta": {"OBJECT_NAME": "COSMOS 2251 DEB", "OBJECT_ID": "1993-036BTT", "EPOCH": "2025-11-30T10:35:51.419040", "MEAN_MOTION": 14.2869489, "ECCENTRICITY": 0.01113545, "INCLINATION": 74.2627, "RA_OF_ASC_NODE": 33.7569, "ARG_OF_PERICENTER": 143.1875, "MEAN_ANOMALY": 217.699, "EPHEMERIS_TYPE": 0, "CLASSIFICATION_TYPE": "U", "NORAD_CAT_ID": 38483, "ELEMENT_SET_NO": 999, "REV_AT_EPOCH": 63302, "BSTAR": 0.00092192588, "MEAN_MOTION_DOT": 2.455e-05, "MEAN_MOTION_DDOT": 0}, "tle": {"line1": "1 38483U 93036BTT 25334.44156735  .00002455  00000+0  92193-3 0  9991", "line2": "2 38483  74.2627  33.7569 0111354 143.1875 217.6990 14.28694890633022"}}, "geometry": {"type": "Point", "coordinates": [-15.072689635215276, -67.62017382853112]}}]}